[{"OBJECT_NAME":"STARLINK-36872","OBJECT_ID":"2026-037Z","EPOCH":"2026-03-09T22:00:01.999584","MEAN_MOTION":15.82036961,"ECCENTRICITY":0.00017049,"INCLINATION":42.999,"RA_OF_ASC_NODE":196.928,"ARG_OF_PERICENTER":275.3655,"MEAN_ANOMALY":313.1683,"EPHEMERIS_TYPE":0,"CLASSIFICATION_TYPE":"U","NORAD_CAT_ID":67955,"ELEMENT_SET_NO":999,"REV_AT_EPOCH":323,"BSTAR":-0.00025650246,"MEAN_MOTION_DOT":-0.0005426,"MEAN_MOTION_DDOT":0},{"OBJECT_NAME":"CZ-2D DEB","OBJECT_ID":"2005-024L","EPOCH":"2026-03-06T07:38:56.656320","MEAN_MOTION":15.78698644,"ECCENTRICITY":0.00065736,"INCLINATION":97.1694,"RA_OF_ASC_NODE":99.2993,"ARG_OF_PERICENTER":133.8674,"MEAN_ANOMALY":226.3138,"EPHEMERIS_TYPE":0,"CLASSIFICATION_TYPE":"U","NORAD_CAT_ID":35272,"ELEMENT_SET_NO":999,"REV_AT_EPOCH":12318,"BSTAR":0.00064046997,"MEAN_MOTION_DOT":0.00112943,"MEAN_MOTION_DDOT":0}]
